NORAD_CAT_ID,OBJECT_NAME,OBJECT_TYPE,EPOCH,MEAN_MOTION,ECCENTRICITY,INCLINATION,RA_OF_ASC_NODE,ARG_OF_PERICENTER,MEAN_ANOMALY,BSTAR,MEAN_MOTION_DOT,MEAN_MOTION_DDOT,TLE_LINE0,TLE_LINE1,TLE_LINE2,SEMIMAJOR_AXIS,PERIOD,APOGEE,PERIGEE,DECAYED
56793.0,STARLINK-6052,PAYLOAD,2024-02-13 12:34:05,14.98317674,0.0002849,70.0003,88.5025,263.7432,96.3402,8.7752e-06,1.2e-07,0.0,0 STARLINK-6052,1 56793U 23078AC  24044.52367387  .00000012  00000-0  87752-5 0  9992,2 56793  70.0003  88.5025 0002849 263.7432  96.3402 14.98317674 39567,6950.231,96.108,574.076,570.116,0.0
56793.0,STARLINK-6052,PAYLOAD,2024-02-13 20:34:45,14.98322713,0.000285,70.0001,87.6593,263.7038,96.3796,9.2671e-07,-8.2e-07,0.0,0 STARLINK-6052,1 56793U 23078AC  24044.85747277 -.00000082  00000-0  92671-6 0  9993,2 56793  70.0001  87.6593 0002850 263.7038  96.3796 14.98322713 39611,6950.215,96.107,574.061,570.1,0.0
56793.0,STARLINK-6052,PAYLOAD,2024-02-14 04:35:25,14.98331745,0.0003038,69.9994,86.8172,265.9471,94.1341,1.0437e-05,3.2e-07,0.0,0 STARLINK-6052,1 56793U 23078AC  24045.19126684  .00000032  00000-0  10437-4 0  9996,2 56793  69.9994  86.8172 0003038 265.9471  94.1341 14.98331745 39928,6950.187,96.107,574.164,569.941,0.0
56793.0,STARLINK-6052,PAYLOAD,2024-02-14 12:36:05,14.98336708,0.0003047,69.9995,85.9763,267.3741,92.7069,6.5095e-05,6.84e-06,0.0,0 STARLINK-6052,1 56793U 23078AC  24045.52506171  .00000684  00000-0  65095-4 0  9999,2 56793  69.9995  85.9763 0003047 267.3741  92.7069 14.98336708 39713,6950.172,96.107,574.155,569.919,0.0
56793.0,STARLINK-6052,PAYLOAD,2024-02-15 03:01:18,14.98323571,0.0003048,69.9995,84.4614,267.433,92.648,2.1742e-05,1.66e-06,0.0,0 STARLINK-6052,1 56793U 23078AC  24046.12591159  .00000166  00000-0  21742-4 0  9992,2 56793  69.9995  84.4614 0003048 267.4330  92.6480 14.98323571 40068,6950.213,96.107,574.196,569.959,0.0
56793.0,STARLINK-6052,PAYLOAD,2024-02-15 12:38:07,14.98325507,0.0003041,69.9995,83.4514,267.4799,92.6012,3.6838e-05,3.47e-06,0.0,0 STARLINK-6052,1 56793U 23078AC  24046.52647111  .00000347  00000-0  36838-4 0  9999,2 56793  69.9995  83.4514 0003041 267.4799  92.6012 14.98325507 39866,6950.207,96.107,574.185,569.958,0.0
56793.0,STARLINK-6052,PAYLOAD,2024-02-15 19:02:39,14.98326477,0.0003032,69.9996,82.7781,267.667,92.4142,4.4751e-05,4.41e-06,0.0,0 STARLINK-6052,1 56793U 23078AC  24046.79351076  .00000441  00000-0  44751-4 0  9998,2 56793  69.9996  82.7781 0003032 267.6670  92.4142 14.98326477 39909,6950.204,96.107,574.176,569.961,0.0
56793.0,STARLINK-6052,PAYLOAD,2024-02-16 04:39:27,14.98333677,0.000292,69.9996,81.768,268.2967,91.7858,-9.1984e-06,-2.03e-06,0.0,0 STARLINK-6052,1 56793U 23078AC  24047.19406780 -.00000203  00000-0 -91984-5 0  9995,2 56793  69.9996  81.7680 0002920 268.2967  91.7858 14.98333677 40220,6950.182,96.107,574.076,570.017,0.0
56793.0,STARLINK-6052,PAYLOAD,2024-02-16 12:40:07,14.98336516,0.000289,69.9996,80.9263,268.2927,91.7902,1.7897e-05,1.21e-06,0.0,0 STARLINK-6052,1 56793U 23078AC  24047.52786422  .00000121  00000-0  17897-4 0  9993,2 56793  69.9996  80.9263 0002890 268.2927  91.7902 14.98336516 40012,6950.173,96.107,574.046,570.029,0.0
56793.0,STARLINK-6052,PAYLOAD,2024-02-17 11:06:00,14.98325164,0.0002845,69.9997,78.5695,265.322,94.7614,1.9811e-06,-6.9e-07,0.0,0 STARLINK-6052,1 56793U 23078AC  24048.46251148 -.00000069  00000-0  19811-5 0  9990,2 56793  69.9997  78.5695 0002845 265.3220  94.7614 14.98325164 40413,6950.208,96.107,574.05,570.096,0.0
56793.0,STARLINK-6052,PAYLOAD,2024-02-17 19:06:41,14.98323142,0.0002967,69.9997,77.7283,258.2334,101.8493,9.248e-05,1.01e-05,0.0,0 STARLINK-6052,1 56793U 23078AC  24048.79631052  .00001010  00000-0  92480-4 0  9990,2 56793  69.9997  77.7283 0002967 258.2334 101.8493 14.98323142 40205,6950.214,96.107,574.141,570.017,0.0
56793.0,STARLINK-6052,PAYLOAD,2024-02-18 11:08:01,14.9833359,0.0002887,69.9997,76.0452,268.4203,91.6625,-1.0848e-05,-2.22e-06,0.0,0 STARLINK-6052,1 56793U 23078AC  24049.46390659 -.00000222  00000-0 -10848-4 0  9994,2 56793  69.9997  76.0452 0002887 268.4203  91.6625 14.98333590 40564,6950.182,96.107,574.053,570.04,0.0
56793.0,STARLINK-6052,PAYLOAD,2024-02-18 19:08:42,14.98325435,0.0002816,69.9997,75.2034,260.7079,99.3762,5.8733e-05,6.08e-06,0.0,0 STARLINK-6052,1 56793U 23078AC  24049.79770957  .00000608  00000-0  58733-4 0  9994,2 56793  69.9997  75.2034 0002816 260.7079  99.3762 14.98325435 40352,6950.207,96.107,574.029,570.115,0.0
56793.0,STARLINK-6052,PAYLOAD,2024-02-19 11:10:02,14.9832963,0.0002976,69.9995,73.5197,268.0281,92.0537,2.9209e-05,2.56e-06,0.0,0 STARLINK-6052,1 56793U 23078AC  24050.46530732  .00000256  00000-0  29209-4 0  9990,2 56793  69.9995  73.5197 0002976 268.0281  92.0537 14.98329630 40715,6950.194,96.107,574.127,569.991,0.0
56793.0,STARLINK-6052,PAYLOAD,2024-02-19 19:10:43,14.98323783,0.0002865,69.9996,72.6769,264.9941,95.0891,8.2801e-05,8.95e-06,0.0,0 STARLINK-6052,1 56793U 23078AC  24050.79910999  .00000895  00000-0  82801-4 0  9999,2 56793  69.9996  72.6769 0002865 264.9941  95.0891 14.98323783 40502,6950.212,96.107,574.068,570.086,0.0
56793.0,STARLINK-6052,PAYLOAD,2024-02-20 11:12:03,14.98330155,0.0002975,69.9996,70.9944,268.3875,91.6943,-1.8307e-05,-3.11e-06,0.0,0 STARLINK-6052,1 56793U 23078AC  24051.46670850 -.00000311  00000-0 -18307-4 0  9998,2 56793  69.9996  70.9944 0002975 268.3875  91.6943 14.98330155 40864,6950.192,96.107,574.125,569.99,0.0
56793.0,STARLINK-6052,PAYLOAD,2024-02-21 11:14:04,14.98333274,0.0002867,69.9996,68.4696,264.9793,95.1038,1.7641e-05,1.18e-06,0.0,0 STARLINK-6052,1 56793U 23078AC  24052.46810468  .00000118  00000-0  17641-4 0  9993,2 56793  69.9996  68.4696 0002867 264.9793  95.1038 14.98333274 41018,6950.183,96.107,574.04,570.055,0.0
56793.0,STARLINK-6052,PAYLOAD,2024-02-21 17:38:36,14.98344833,0.0003018,69.9998,67.7965,269.9224,90.1589,-0.00026161,-3.214e-05,0.0,0 STARLINK-6052,1 56793U 23078AC  24052.73514311 -.00003214  00000-0 -26161-3 0  9999,2 56793  69.9998  67.7965 0003018 269.9224  90.1589 14.98344833 40797,6950.147,96.106,574.11,569.914,0.0
56793.0,STARLINK-6052,PAYLOAD,2024-02-22 11:16:05,14.98325834,0.0002825,69.9999,65.9449,266.4064,93.6772,7.9851e-05,8.6e-06,0.0,0 STARLINK-6052,1 56793U 23078AC  24053.46950784  .00000860  00000-0  79851-4 0  9995,2 56793  69.9999  65.9449 0002825 266.4064  93.6772 14.98325834 41168,6950.206,96.107,574.034,570.107,0.0
56793.0,STARLINK-6052,PAYLOAD,2024-02-23 09:41:58,14.98329189,0.0002672,70.0003,63.5885,261.7535,98.3321,-2.4635e-05,-3.87e-06,0.0,0 STARLINK-6052,1 56793U 23078AC  24054.40414815 -.00000387  00000-0 -24635-4 0  9996,2 56793  70.0003  63.5885 0002672 261.7535  98.3321 14.98329189 41042,6950.195,96.107,573.917,570.203,0.0
56793.0,STARLINK-6052,PAYLOAD,2024-02-23 17:42:38,14.98338979,0.0002805,70.0003,62.7461,272.8551,87.2287,-0.00016174,-2.023e-05,0.0,0 STARLINK-6052,1 56793U 23078AC  24054.73794494 -.00002023  00000-0 -16174-3 0  9993,2 56793  70.0003  62.7461 0002805 272.8551  87.2287 14.98338979 41351,6950.165,96.106,573.98,570.081,0.0
56793.0,STARLINK-6052,PAYLOAD,2024-02-24 09:43:59,14.98330282,0.0002912,70.0,61.0633,268.8894,91.1931,1.2876e-05,6.1e-07,0.0,0 STARLINK-6052,1 56793U 23078AC  24055.40554606  .00000061  00000-0  12876-4 0  9991,2 56793  70.0000  61.0633 0002912 268.8894  91.1931 14.98330282 41196,6950.192,96.107,574.081,570.033,0.0
56793.0,STARLINK-6052,PAYLOAD,2024-02-25 04:57:36,14.98329474,0.0002953,70.0,59.0434,269.3791,90.703,3.8754e-06,-4.7e-07,0.0,0 STARLINK-6052,1 56793U 23078AC  24056.20666674 -.00000047  00000-0  38754-5 0  9998,2 56793  70.0000  59.0434 0002953 269.3791  90.7030 14.98329474 41577,6950.195,96.107,574.112,570.007,0.0
56793.0,STARLINK-6052,PAYLOAD,2024-02-25 09:46:00,14.98331173,0.0002932,70.0002,58.5385,268.3073,91.775,2.2253e-05,1.73e-06,0.0,0 STARLINK-6052,1 56793U 23078AC  24056.40694481  .00000173  00000-0  22253-4 0  9992,2 56793  70.0002  58.5385 0002932 268.3073  91.7750 14.98331173 41341,6950.189,96.107,574.092,570.016,0.0
56793.0,STARLINK-6052,PAYLOAD,2024-02-25 17:46:40,14.98314947,0.0002864,70.0002,57.6951,279.5963,80.4873,0.00030425,3.538e-05,0.0,0 STARLINK-6052,1 56793U 23078AC  24056.74074962  .00003538  00000-0  30425-3 0  9992,2 56793  70.0002  57.6951 0002864 279.5963  80.4873 14.98314947 41651,6950.239,96.108,574.095,570.114,0.0
56793.0,STARLINK-6052,PAYLOAD,2024-02-26 03:23:28,14.98323759,0.0003013,69.9998,56.6855,268.1084,91.973,0.00012913,1.448e-05,0.0,0 STARLINK-6052,1 56793U 23078AC  24057.14130572  .00001448  00000-0  12913-3 0  9997,2 56793  69.9998  56.6855 0003013 268.1084  91.9730 14.98323759 41716,6950.212,96.107,574.171,569.983,0.0
56793.0,STARLINK-6052,PAYLOAD,2024-02-26 09:48:00,14.98332575,0.0002879,70.0,56.0122,265.6638,94.4192,5.032e-05,5.08e-06,0.0,0 STARLINK-6052,1 56793U 23078AC  24057.40834146  .00000508  00000-0  50320-4 0  9995,2 56793  70.0000  56.0122 0002879 265.6638  94.4192 14.98332575 41750,6950.185,96.107,574.051,570.049,0.0
56793.0,STARLINK-6052,PAYLOAD,2024-02-26 22:37:05,14.98331247,0.0002807,70.0007,54.6674,273.3079,86.7759,-1.7845e-05,-3.06e-06,0.0,0 STARLINK-6052,1 56793U 23078AC  24057.94242457 -.00000306  00000-0 -17845-4 0  9995,2 56793  70.0007  54.6674 0002807 273.3079  86.7759 14.98331247 41577,6950.189,96.107,574.005,570.103,0.0
56793.0,STARLINK-6052,PAYLOAD,2024-02-27 03:25:29,14.9832734,0.0002815,70.0005,54.1617,270.7387,89.3449,-3.2634e-05,-4.82e-06,0.0,0 STARLINK-6052,1 56793U 23078AC  24058.14270708 -.00000482  00000-0 -32634-4 0  9996,2 56793  70.0005  54.1617 0002815 270.7387  89.3449 14.98327340 41865,6950.201,96.107,574.023,570.11,0.0
56793.0,STARLINK-6052,PAYLOAD,2024-02-27 09:50:02,14.98328554,0.0002871,70.0006,53.4885,271.7623,88.3207,-4.1122e-05,-5.84e-06,0.0,0 STARLINK-6052,1 56793U 23078AC  24058.40974674 -.00000584  00000-0 -41122-4 0  9993,2 56793  70.0006  53.4885 0002871 271.7623  88.3207 14.98328554 41646,6950.197,96.107,574.058,570.067,0.0
